[{"OBJECT_NAME":"TEVEL2-1","OBJECT_ID":"2025-052H","EPOCH":"2026-03-09T15:32:51.927072","MEAN_MOTION":15.30341923,"ECCENTRICITY":0.0004767,"INCLINATION":97.3991,"RA_OF_ASC_NODE":324.7682,"ARG_OF_PERICENTER":104.8919,"MEAN_ANOMALY":255.2849,"EPHEMERIS_TYPE":0,"CLASSIFICATION_TYPE":"U","NORAD_CAT_ID":63217,"ELEMENT_SET_NO":999,"REV_AT_EPOCH":5485,"BSTAR":0.000706,"MEAN_MOTION_DOT":0.00020683,"MEAN_MOTION_DDOT":0},{"OBJECT_NAME":"STARLINK-34282","OBJECT_ID":"2025-130S","EPOCH":"2026-03-09T08:00:31.318848","MEAN_MOTION":15.30208456,"ECCENTRICITY":9.774e-5,"INCLINATION":53.1593,"RA_OF_ASC_NODE":92.6673,"ARG_OF_PERICENTER":84.0879,"MEAN_ANOMALY":276.0233,"EPHEMERIS_TYPE":0,"CLASSIFICATION_TYPE":"U","NORAD_CAT_ID":64454,"ELEMENT_SET_NO":999,"REV_AT_EPOCH":4061,"BSTAR":0.00094858386,"MEAN_MOTION_DOT":0.00027848,"MEAN_MOTION_DDOT":0}]
